FENGYUN 3D              
1 43010U 17072A   26162.72080002 -.00000326  00000+0 -13215-3 0  9998
2 43010  99.0120 137.0440 0002652  71.2836 288.8627 14.19736825444214
NOAA 20 (JPSS-1)        
1 43013U 17073A   26162.64436777  .00000041  00000+0  40353-4 0  9993
2 43013  98.7772 102.1563 0000355  55.7149 304.4060 14.19510731443689
GOES 17                 
1 43226U 18022A   26162.60548728 -.00000166  00000+0  00000+0 0  9999
2 43226   0.9223  85.8105 0000476  24.8484 277.7766  1.00270815 30367
SENTINEL-3B             
1 43437U 18039A   26162.43904625  .00000076  00000+0  49397-4 0  9990
2 43437  98.6248 230.0537 0000809  80.8461 279.2811 14.26740095423304
FENGYUN 2H              
1 43491U 18050A   26162.77775036 -.00000115  00000+0  00000+0 0  9990
2 43491   3.0160  79.1414 0001797 130.4479  49.9576  1.00270461 29384
METOP-C                 
1 43689U 18087A   26162.64821455  .00000082  00000+0  57114-4 0  9997
2 43689  98.6645 222.3528 0001569 135.5230 224.6074 14.21510643394046
GEO-KOMPSAT-2A          
1 43823U 18100A   26162.57723742 -.00000327  00000+0  00000+0 0  9995
2 43823   0.0541 130.2462 0002052 320.4023 145.3295  1.00270826 27579
METEOR-M2 2             
1 44387U 19038A   26162.69522396 -.00000235  00000+0 -81629-4 0  9997
2 44387  98.9143 149.8992 0002223  57.1212 303.0180 14.24363618360519
ARKTIKA-M 1             
1 47719U 21016A   26160.51571443 -.00000149  00000+0  00000+0 0  9996
2 47719  63.2417  58.7595 7285674 269.8905  14.6803  2.00625436 38630
FENGYUN 3E              
1 49008U 21062A   26162.70527513  .00000164  00000+0  98137-4 0  9991
2 49008  98.7495 166.1740 0002780  94.8816 265.2677 14.19904010255807
GOES 18                 
1 51850U 22021A   26162.66734682  .00000113  00000+0  00000+0 0  9998
2 51850   0.0332 125.7729 0000460  29.3228 208.1548  1.00271607  6534
NOAA 21 (JPSS-2)        
1 54234U 22150A   26162.67747137  .00000019  00000+0  29523-4 0  9991
2 54234  98.7060 101.5591 0001361 166.4023 193.7190 14.19564494185769
METEOSAT-12 (MTG-I1)    
1 54743U 22170C   26162.69438692  .00000008  00000+0  00000+0 0  9995
2 54743   0.7318  21.9787 0003235  72.0387  55.5733  1.00271721 12921
TIANMU-1 03             
1 55973U 23039A   26162.74685756  .00013906  00000+0  27588-3 0  9992
2 55973  97.5228 336.5044 0004229 112.6896 247.4801 15.47130862179997
TIANMU-1 04             
1 55974U 23039B   26162.73842730  .00014321  00000+0  27827-3 0  9997
2 55974  97.5165 335.6488 0004795 109.8338 250.3429 15.47724057180005
TIANMU-1 05             
1 55975U 23039C   26162.72736353  .00014213  00000+0  28264-3 0  9996
2 55975  97.5208 336.1011 0003842 127.2488 232.9112 15.47057008179978
TIANMU-1 06             
1 55976U 23039D   26162.74147128  .00014187  00000+0  27662-3 0  9996
2 55976  97.5218 336.7458 0004180 124.4205 235.7440 15.47630084180005
FENGYUN 3G              
1 56232U 23055A   26160.18957767  .00020992  00000+0  34496-3 0  9998
2 56232  49.9972  27.2134 0007206 257.6391 102.3769 15.52274313178767
METEOR-M2 3             
1 57166U 23091A   26162.68827352 -.00000004  00000+0  16968-4 0  9996
2 57166  98.6091 217.7789 0004045 169.7532 190.3730 14.24046333153739
TIANMU-1 07             
1 57399U 23101A   26162.67099694  .00005768  00000+0  20276-3 0  9992
2 57399  97.2600 213.4660 0003793 133.0435 227.1123 15.29743499160808
TIANMU-1 08             
1 57400U 23101B   26162.70306684  .00005718  00000+0  20093-3 0  9991
2 57400  97.2589 213.2686 0005367 128.4026 231.7697 15.29748693160804
TIANMU-1 09             
1 57401U 23101C   26162.68658897  .00006089  00000+0  21364-3 0  9999
2 57401  97.2547 212.6713 0004234 139.2811 220.8747 15.29777810160805
TIANMU-1 10             
1 57402U 23101D   26162.71953815  .00005782  00000+0  20315-3 0  9996
2 57402  97.2626 213.7483 0005811 140.6119 219.5545 15.29749047160801
FENGYUN 3F              
1 57490U 23111A   26162.68932014  .00000027  00000+0  33005-4 0  9996
2 57490  98.6841 232.8002 0001593  97.3086 262.8271 14.19938171148084
ARKTIKA-M 2             
1 58584U 23198A   26160.78386103  .00000212  00000+0  00000+0 0  9997
2 58584  63.2205 155.1874 6900401 267.4353  18.7899  2.00606537 18179
TIANMU-1 11             
1 58645U 23205A   26162.67993417  .00005328  00000+0  20397-3 0  9994
2 58645  97.3450 184.3231 0009613  35.3383 324.8491 15.26938691136689
TIANMU-1 12             
1 58646U 23205B   26162.71570049  .00005403  00000+0  20711-3 0  9996
2 58646  97.3438 184.1152 0007417  22.3565 337.7996 15.26902309136673
TIANMU-1 13             
1 58647U 23205C   26162.68181860  .00005445  00000+0  20964-3 0  9998
2 58647  97.3466 184.3536 0006559   2.7217 357.4057 15.26755795136666
TIANMU-1 14             
1 58648U 23205D   26162.73272443  .00005467  00000+0  21018-3 0  9998
2 58648  97.3401 183.5898 0007540   6.0177 354.1151 15.26801005136677
TIANMU-1 19             
1 58660U 23208A   26162.66807133  .00007641  00000+0  25379-3 0  9997
2 58660  97.4495 278.9402 0004249 352.2839   7.8336 15.31490715136483
TIANMU-1 20             
1 58661U 23208B   26162.71015411  .00007433  00000+0  23788-3 0  9995
2 58661  97.4436 279.6121 0006482 355.4140   4.7042 15.32683108136588
