OBJECT_NAME,OBJECT_ID,EPOCH,MEAN_MOTION,ECCENTRICITY,INCLINATION,RA_OF_ASC_NODE,ARG_OF_PERICENTER,MEAN_ANOMALY,EPHEMERIS_TYPE,CLASSIFICATION_TYPE,NORAD_CAT_ID,ELEMENT_SET_NO,REV_AT_EPOCH,BSTAR,MEAN_MOTION_DOT,MEAN_MOTION_DDOT
FENGYUN 3D,2017-072A,2026-06-11T17:17:57.121728,14.19736825,.0002652,99.0120,137.0440,71.2836,288.8627,0,U,43010,999,44421,-.13215E-3,-.326E-5,0
NOAA 20 (JPSS-1),2017-073A,2026-06-11T15:27:53.375328,14.19510731,.0000355,98.7772,102.1563,55.7149,304.4060,0,U,43013,999,44368,.40353E-4,.41E-6,0
GOES 17,2018-022A,2026-06-11T14:31:54.100992,1.00270815,.0000476,0.9223,85.8105,24.8484,277.7766,0,U,43226,999,3036,0,-.166E-5,0
SENTINEL-3B,2018-039A,2026-06-11T10:32:13.596000,14.26740095,.0000809,98.6248,230.0537,80.8461,279.2811,0,U,43437,999,42330,.49397E-4,.76E-6,0
FENGYUN 2H,2018-050A,2026-06-11T18:39:57.631104,1.00270461,.0001797,3.0160,79.1414,130.4479,49.9576,0,U,43491,999,2938,0,-.115E-5,0
METOP-C,2018-087A,2026-06-11T15:33:25.737120,14.21510643,.0001569,98.6645,222.3528,135.5230,224.6074,0,U,43689,999,39404,.57114E-4,.82E-6,0
GEO-KOMPSAT-2A,2018-100A,2026-06-11T13:51:13.313088,1.00270826,.0002052,0.0541,130.2462,320.4023,145.3295,0,U,43823,999,2757,0,-.327E-5,0
METEOR-M2 2,2019-038A,2026-06-11T16:41:07.350144,14.24363618,.0002223,98.9143,149.8992,57.1212,303.0180,0,U,44387,999,36051,-.81629E-4,-.235E-5,0
ARKTIKA-M 1,2021-016A,2026-06-09T12:22:37.726752,2.00625436,.7285674,63.2417,58.7595,269.8905,14.6803,0,U,47719,999,3863,0,-.149E-5,0
FENGYUN 3E,2021-062A,2026-06-11T16:55:35.771232,14.19904010,.000278,98.7495,166.1740,94.8816,265.2677,0,U,49008,999,25580,.98137E-4,.164E-5,0
GOES 18,2022-021A,2026-06-11T16:00:58.765248,1.00271607,.000046,0.0332,125.7729,29.3228,208.1548,0,U,51850,999,653,0,.113E-5,0
NOAA 21 (JPSS-2),2022-150A,2026-06-11T16:15:33.526368,14.19564494,.0001361,98.7060,101.5591,166.4023,193.7190,0,U,54234,999,18576,.29523E-4,.19E-6,0
METEOSAT-12 (MTG-I1),2022-170C,2026-06-11T16:39:55.029888,1.00271721,.0003235,0.7318,21.9787,72.0387,55.5733,0,U,54743,999,1292,0,.8E-7,0
TIANMU-1 03,2023-039A,2026-06-11T17:55:28.493184,15.47130862,.0004229,97.5228,336.5044,112.6896,247.4801,0,U,55973,999,17999,.27588E-3,.13906E-3,0
TIANMU-1 04,2023-039B,2026-06-11T17:43:20.118720,15.47724057,.0004795,97.5165,335.6488,109.8338,250.3429,0,U,55974,999,18000,.27827E-3,.14321E-3,0
TIANMU-1 05,2023-039C,2026-06-11T17:27:24.208992,15.47057008,.0003842,97.5208,336.1011,127.2488,232.9112,0,U,55975,999,17997,.28264E-3,.14213E-3,0
TIANMU-1 06,2023-039D,2026-06-11T17:47:43.118592,15.47630084,.000418,97.5218,336.7458,124.4205,235.7440,0,U,55976,999,18000,.27662E-3,.14187E-3,0
FENGYUN 3G,2023-055A,2026-06-09T04:32:59.510688,15.52274313,.0007206,49.9972,27.2134,257.6391,102.3769,0,U,56232,999,17876,.34496E-3,.20992E-3,0
METEOR-M2 3,2023-091A,2026-06-11T16:31:06.832128,14.24046333,.0004045,98.6091,217.7789,169.7532,190.3730,0,U,57166,999,15373,.16968E-4,-.4E-7,0
TIANMU-1 07,2023-101A,2026-06-11T16:06:14.135616,15.29743499,.0003793,97.2600,213.4660,133.0435,227.1123,0,U,57399,999,16080,.20276E-3,.5768E-4,0
TIANMU-1 08,2023-101B,2026-06-11T16:52:24.974976,15.29748693,.0005367,97.2589,213.2686,128.4026,231.7697,0,U,57400,999,16080,.20093E-3,.5718E-4,0
TIANMU-1 09,2023-101C,2026-06-11T16:28:41.287008,15.29777810,.0004234,97.2547,212.6713,139.2811,220.8747,0,U,57401,999,16080,.21364E-3,.6089E-4,0
TIANMU-1 10,2023-101D,2026-06-11T17:16:08.096160,15.29749047,.0005811,97.2626,213.7483,140.6119,219.5545,0,U,57402,999,16080,.20315E-3,.5782E-4,0
FENGYUN 3F,2023-111A,2026-06-11T16:32:37.260096,14.19938171,.0001593,98.6841,232.8002,97.3086,262.8271,0,U,57490,999,14808,.33005E-4,.27E-6,0
ARKTIKA-M 2,2023-198A,2026-06-09T18:48:45.592992,2.00606537,.69004015,63.2205,155.1874,267.4353,18.7899,0,U,58584,999,1817,0,.212E-5,0
TIANMU-1 11,2023-205A,2026-06-11T16:19:06.312288,15.26938691,.0009613,97.3450,184.3231,35.3383,324.8491,0,U,58645,999,13668,.20397E-3,.5328E-4,0
TIANMU-1 12,2023-205B,2026-06-11T17:10:36.522336,15.26902309,.0007417,97.3438,184.1152,22.3565,337.7996,0,U,58646,999,13667,.20711E-3,.5403E-4,0
TIANMU-1 13,2023-205C,2026-06-11T16:21:49.127040,15.26755795,.0006559,97.3466,184.3536,2.7217,357.4057,0,U,58647,999,13666,.20964E-3,.5445E-4,0
TIANMU-1 14,2023-205D,2026-06-11T17:35:07.390752,15.26801005,.000754,97.3401,183.5898,6.0177,354.1151,0,U,58648,999,13667,.21018E-3,.5467E-4,0
TIANMU-1 19,2023-208A,2026-06-11T16:02:01.362912,15.31490715,.0004249,97.4495,278.9402,352.2839,7.8336,0,U,58660,999,13648,.25379E-3,.7641E-4,0
TIANMU-1 20,2023-208B,2026-06-11T17:02:37.315104,15.32683108,.0006482,97.4436,279.6121,355.4140,4.7042,0,U,58661,999,13658,.23788E-3,.7433E-4,0
